NOMDEPTO,NOMBRE,DIRECCION,NOMBLOC,LATITUD,LONGITUD
MONTEVIDEO,EL TUNEL,Avelino Miranda 2615 esq Av. Italia,MONTEVIDEO,-34.8937497309304,-56.1627059570149
MONTEVIDEO,EL TUNEL 2,Solano Garcia 2569 esq Victor Soliño,MONTEVIDEO,-34.923639437959,-56.1571150765636
MONTEVIDEO,EL TUNEL 3,26 de Marzo 3397 esq. Julio César,MONTEVIDEO,-34.9060613970433,-56.139705153032
MONTEVIDEO,EL TUNEL 4,Juan B.Alberdi 6597 esq. Murillo,MONTEVIDEO,-34.8795829090314,-56.0636535400666
MONTEVIDEO,EL TUNEL 5,18 de Julio 945A esq. Río Branco,MONTEVIDEO,-34.9060770358697,-56.1960635738061
MONTEVIDEO,EL TUNEL 5,Hipolito Yrigoyen 1599 esq. Av. Gral. Rivera,MONTEVIDEO,-34.8913609001921,-56.1090217755618
MONTEVIDEO,FARMAHORRO EL TUNEL  ,Avda Agraciada 4061 Bis,MONTEVIDEO,-34.8589709357868,-56.2171447118438
MONTEVIDEO,EL TUNEL BEBES Y NIÑOS,Avelino Miranda 2605 esq. 8 de Octubre,MONTEVIDEO,-34.8935092839739,-56.1631203859155
MONTEVIDEO,EL TUNEL 8,Camino Luis Eduardo Pérez 6651 (Sector Polivalente Nº local C - 017),RURAL,-34.8182865288097,-56.2624855793926
MONTEVIDEO,ELTUNEL 9,18 de Julio 1195 esq. Cuareim,MONTEVIDEO,-34.905719297715,-56.1904883321811
MALDONADO,EL TUNEL 10,Avda. Gorlero S/N entre parada 28 y 29,PUNTA DEL ESTE,-34.9605372940849,-54.9416009756845
MONTEVIDEO,FARMAGLOBAL  4, Av. Brasil 2948,MONTEVIDEO,-34.9113658914856,-56.1518364839276
MONTEVIDEO,FARMAGLOBAL,Francisco Solano Antuña 2752,MONTEVIDEO,-34.9184649412615,-56.1537253609333
MONTEVIDEO,FARMAGLOBAL 7,21 de Setiembre 3076,MONTEVIDEO,-34.9202184446758,-56.1509240561477
MONTEVIDEO,FARMAGLOBAL 2,Jaime Zudáñez,MONTEVIDEO,-34.9163185123329,-56.1519933609053
MONTEVIDEO,FARMAGLOBAL 5,José Ellauri 868,MONTEVIDEO,-34.9147292165962,-56.153402810138
MONTEVIDEO,FARMAGLOBAL 8,Ramón Masini 3379,MONTEVIDEO,-34.9120415207297,-56.1478890773973
MONTEVIDEO,FARMAGLOBAL 14,Bv. Gral. Artigas 1157,MONTEVIDEO,-34.9073907177334,-56.1638732765841
MONTEVIDEO,FARMAGLOBAL,Av. Italia 2941,MONTEVIDEO,-34.8899247601845,-56.1510052719975
MONTEVIDEO,FARMACITY,Av. Italia 3250,MONTEVIDEO,-34.887861651448,-56.1445066752182
MONTEVIDEO,FARMACITY,Av. Brasil 3077,MONTEVIDEO,-34.9133373252682,-56.1497662323104
MONTEVIDEO,FARMACITY,21 de Septiembre 2753,MONTEVIDEO,-34.9175633705835,-56.1572220019286
MONTEVIDEO,FARMACITY,Av. Luis A. Herrera 1248,MONTEVIDEO,-34.9044712427043,-56.1370327995699
MONTEVIDEO,FARMAUY,Maldonado esq.Yaro,MONTEVIDEO,-34.9084232508059,-56.1759774024377
MONTEVIDEO,FARMA & GLAM (ANDES),Soriano 850,MONTEVIDEO,-34.9081927659352,-56.1980408235964
MONTEVIDEO,FARMA & GLAM (ANDROMEDA),Garcia de Zuniga 2211,MONTEVIDEO,-34.9184750336706,-56.1655512651651
MONTEVIDEO,FARMA & GLAM (GALENA),Arenal Grande 1352,MONTEVIDEO,-34.9032630322037,-56.1729693546664
MONTEVIDEO,FARMA & GLAM (KENNY),Rondeau 1685,MONTEVIDEO,-34.899782270239,-56.1922420004161
MONTEVIDEO,FARMA & GLAM (LOS FAROLES),Durazno 1102,MONTEVIDEO,-34.9107692050951,-56.1917957112397
MONTEVIDEO,FARMA & GLAM (LA CAJA),Colonia 1870,MONTEVIDEO,-34.9010169057566,-56.1764721374786
CANELONES,FARMAGLOBAL 11,Av. Giannattasio 21.500,LAGOMAR,-34.8363298248119,-55.9837469563844
FLORIDA,DUPEST,Independencia 651,FLORIDA,-34.0983506722041,-56.2157003569084
FLORIDA,ENY,José E. Rodó 3654 e/ M.Oribe,FLORIDA,-34.1010778051999,-56.2187477523771
FLORIDA,ALQUIMIA,Av. Artigas 829,SARANDI GRANDE,-33.7241213281502,-56.3295045224164
FLORIDA,PASTEUR - SARANDI GRANDE,Av. Artigas 867,SARANDI GRANDE,-33.724500995704,-56.3285818782514
FLORIDA,CERRO CHATO,Julio A. Goday s/n,CERRO CHATO,-33.1088227560603,-55.1331030247194
FLORIDA,NATIVA,Ruta 5 Km. 74.500,MENDOZA,-34.2803534793145,-56.2156339100171
FLORIDA,NUEVA FARMACIA CARDAL,Av. Artigas s/n e/ Uruguay,CARDAL,-34.2906330436491,-56.3927440706687
ARTIGAS,ALFA,Rincón 353,TOMAS GOMENSORO,-30.4306291828149,-57.4377733984835
ARTIGAS,PLAZA,19 de Abril 205,TOMAS GOMENSORO,-30.4298658959502,-57.4354750757288
ARTIGAS,ARTIGAS,Av. Artigas 698,BELLA UNION,-30.2614688643839,-57.6042035172574
ARTIGAS,FARMACENTRO,Av. Artigas 901,BELLA UNION,-30.2606822239894,-57.6019227122054
ARTIGAS,SANTA CECILIA CENTRO,Av. Artigas 642,BELLA UNION,-30.261631617569,-57.6048078138057
ARTIGAS,SANTA CECILIA ESTE,Av. Artigas 1609,BELLA UNION,-30.2588708413184,-57.5946221769729
FLORIDA,RIAL,Av. Centenario s/n,CAPILLA DEL SAUCE,-33.4690145785136,-55.6303246740372
FLORIDA,TEJERA HNAS.,Manuel Francisco Artigas s/n,CASUPA,-34.1003422102029,-55.6526214704887
FLORIDA,25 DE MAYO - FLORIDA,19 de Junio 1195 esq. Gral F. Rivera,25 DE MAYO,-34.1972245910093,-56.3421652347245
LAVALLEJA,BOASSO,Rivera s/n,JOSE BATLLE Y ORDO�EZ,-33.4709044574466,-55.1492286940636
LAVALLEJA,FARINA,José E. Rodó y W. Beltrán,MINAS,-34.3768437679007,-55.2352230580063
LAVALLEJA,GORTARI,Domingo Pérez 501 e/ T.y Tres,MINAS,-34.3767873255033,-55.2381280401211
LAVALLEJA,IDAMAR,Varela s/n e/ Carlos Ma. Fosalba,MINAS,-34.3683581938522,-55.2269632535474
LAVALLEJA,ORIENTAL,Domingo Pérez 479,MINAS,-34.3772304583683,-55.2385939901255
LAVALLEJA,SERRANA,Juan Farina 445,MINAS,-34.3750280039662,-55.2432763073085
LAVALLEJA,GOMEZ,Av. Eduardo Fabini 775,SOLIS DE MATAOJO,-34.6001554518086,-55.466628973545
LAVALLEJA,IRISARRI,Av. Artigas s/n,MARISCALA,-34.0414711050587,-54.7766190741089
LAVALLEJA,LA FAMILIA,Podestá 715,JOSE PEDRO VARELA,-33.4561523227234,-54.5362650896265
LAVALLEJA,ZAPICAN,Lavalleja 415,JOSE PEDRO VARELA,-33.4568060163783,-54.5342699358266
MONTEVIDEO,FARMA & GLAM (LUJAN),18 de Julio 2176,MONTEVIDEO,-34.8990232850278,-56.168168809907
MONTEVIDEO,FARMA & GLAM (EROSA),Jose E. Rodo 2101,MONTEVIDEO,-34.9031485237966,-56.1712164952038
MONTEVIDEO,REX,Av. Rivera 3648,MONTEVIDEO,-34.9000127551097,-56.1346222507947
MONTEVIDEO,SAN PABLO,Av. San Martin 2443,MONTEVIDEO,-34.8812891624914,-56.1864857508743
MONTEVIDEO,DE MARCO,Av. Luis Alberto de Herrera 2957,MONTEVIDEO,-34.8745933567888,-56.158918585892
MALDONADO,ALVARIZA,Alvariza 831,SAN CARLOS,-34.7901502921393,-54.9206598979306
MALDONADO,SOLER,18 de Julio 851,SAN CARLOS,-34.7928774118849,-54.9166476325418
MALDONADO,CEDEMCAR,Ejido 741,SAN CARLOS,-34.7874833606132,-54.9135161496881
MALDONADO,BALNEARIO BUENOS AIRES,Calle 26 esquina 49,BALNEARIO BUENOS AIRES,-34.8889260436288,-54.7952106524818
MALDONADO,DIADRI,Camino Lussich y Firenze,MALDONADO,-34.8975931102139,-54.9681953597049
MALDONADO,DEL MIRADOR,Cno. de los Gauchos e/ Chiossi,MALDONADO,-34.9000616340705,-54.9436283635172
MALDONADO,IPORA,Cont. 25 de Agosto y Artigas,MALDONADO,-34.9094242026861,-54.9640363125685
MALDONADO,SAN ROQUE 54,Sarandí 555 e/ Antonio Ledesma,MALDONADO,-34.9134787167053,-54.9573564750169
MALDONADO,LUSSICH,Cno. Lussich y Carolina Saboya,MALDONADO,-34.9000076538543,-54.9662417899746
MALDONADO,LUZ,Calle 7 esq. 13,MALDONADO,-34.897407178358,-54.9350309430461
MALDONADO,MALDONADO,Sta. Teresa y Ventura Alegre,MALDONADO,-34.906546971478,-54.9532839675922
MALDONADO,NIEVE,Cno de los Gauchos y Oribe,MALDONADO,-34.9028437572786,-54.9438194363461
MALDONADO,RUMBO AL 3000,Dr. Román Bergalli 445,MALDONADO,-34.9048041816396,-54.9507751727807
MALDONADO,SUEÑOS,Calle 1 y 10 - Urb. Biarritz,MALDONADO,-34.8935180323028,-54.9438297182921
MALDONADO,TAMITA,Florida y Ramón Guerra ,MALDONADO,-34.9082203581812,-54.9563908289266
MALDONADO,SAN ROQUE,Sarandí 555,PINARES- LAS DELICIAS,-34.9144032350119,-54.9618436875949
MALDONADO,COLONIAL,Pedragosa Sierra y Bvar.Artigas,PUNTA DEL ESTE,-34.9454838439584,-54.9363376070105
MALDONADO,LA PASTORA,Av. Francia y Ansina,PUNTA DEL ESTE,-34.9534986208257,-54.9363273250646
MALDONADO,LAS DELICIAS,Av. España P. 27 A (límite Maldonado),PINARES- LAS DELICIAS,-34.9144649266876,-54.9683144589123
MALDONADO,SAN ROQUE 90 MENAFRA,Calle 28 esq. 20,PUNTA DEL ESTE,-34.9601064847557,-54.9427946690666
MALDONADO,SAN RAFAEL,Brighton y Nordeney (La Barra),PUNTA DEL ESTE,-34.9389462399925,-54.9187143516538
MALDONADO,SAN ROQUE 15 - PUNTA SHOPPING,Av. Roosevelt y Los Alpes,PUNTA DEL ESTE,-34.9409375101913,-54.9338836492441
MALDONADO,FONT,"Avenida Williman y Parada 1, Edificio Vanguardia",PUNTA DEL ESTE,-34.9550134941956,-54.9399705612459
MALDONADO,FUTURA,Gral. Sanabria 936,PIRIAPOLIS,-34.8673633465429,-55.2755245429878
MALDONADO,MARITAN,Margarita Muniz 801,AIGUA,-34.2040997229718,-54.7640464238877
PAYSANDU,TERMAL GUAVIYU,"Termas de Guaviyú, ruta 3, km431",TERMAS DE GUAVIYU,-31.8419034185551,-57.8863551310779
MONTEVIDEO,ANTARTIDA,Colonia 1475 BIS,MONTEVIDEO,-34.9041512063869,-56.1846037024396
MONTEVIDEO,BARCELONA,Bulevar España 2319,MONTEVIDEO,-34.9100880268784,-56.1652972913904
MONTEVIDEO,CACERES,Bulevar España 2941,MONTEVIDEO,-34.9147887437957,-56.1498606772787
MONTEVIDEO,CAMAÑO,Brito del Pino 1314,MONTEVIDEO,-34.9047208123094,-56.157814607403
MONTEVIDEO,CONSTITUCION SUR,Camino Maldonado 5516,MONTEVIDEO,-34.8458106410233,-56.1255555338424
MONTEVIDEO,CORAL,Bvar. José Batlle y Ordóñez 1375,MONTEVIDEO,-34.8932655674294,-56.1298393227133
MONTEVIDEO,PASO DE LA ARENA,Av. Luis Batlle Berres 6605,MONTEVIDEO,-34.836202211222,-56.2730629149848
MONTEVIDEO,POPULAR,Fernández Crespo 1991,MONTEVIDEO,-34.8959770677874,-56.1816617172109
MONTEVIDEO,PUNTA FARMA,María Espínola 1614,MONTEVIDEO,-34.8883901517884,-56.0842326794424
MONTEVIDEO,SILLEDA,General Flores 3401,MONTEVIDEO,-34.8654870023109,-56.1710205096608
MONTEVIDEO,TAPIE,25 de mayo 315,MONTEVIDEO,-34.9069140887224,-56.2091708939614
ARTIGAS,SAGA,Manuel Oribe 476,ARTIGAS,-30.4045345408518,-56.4651867352879
CANELONES,LUNA,Garibaldi 21,PASO CARRASCO,-34.8536111592432,-56.0437488193329
CERRO LARGO,FARMACENTRO,Herrera 650,MELO,-32.369626802952,-54.1695726540865
CERRO LARGO,CENTRAL MEDIFAR,SD,MELO,-32.3723320640699,-54.1688765200442
SALTO,DOS NACIONES,Enrique Amorin 1201 esquina A. Invernizzi,SALTO,-31.3773226108218,-57.9578673671911
ROCHA,CASTILLOS,Olivera 1230,CASTILLOS,-34.199478360519,-53.8606594639707
ROCHA,DOS VIAS, 19 de Abril 1462,CASTILLOS,-34.1980757559011,-53.8561570804883
ROCHA,FERRER,Acosta 1229,CASTILLOS,-34.1990070491127,-53.8593406984011
ROCHA,GARAT,19 de Abril 1350,CASTILLOS,-34.1985436684271,-53.8586042743288
ROCHA,CHIQUITIN,Av. Brasil 685,CHUY,-33.6929290877316,-53.4547327536146
ROCHA,CHIQUITIN II,Av. Brasil 359,CHUY,-33.6930765570974,-53.4515031745031
ROCHA,CRISTAL,Av. Gral Artigas 128,CHUY,-33.6932885443108,-53.4554774739121
ROCHA,DE LA ALDEA,Av. Central s/n,PUNTA DEL DIABLO,-34.0451197773208,-53.5403756124929
ROCHA,DEL NAVIO,Av. del Navio y Lira ,LA PALOMA,-34.6615544058285,-54.1649004359799
ROCHA,SOL Y LUA,Paloma s/n entre Aries y Solari,LA PALOMA,-34.6585396898406,-54.1587957789368
ROCHA,HUMANITARIA,25 de Agosto 1192 loc.3,LASCANO,-33.6745930837147,-54.2075471209273
ROCHA,MAFELUGUS ,Larrañaga 1251,LASCANO,-33.6722899760987,-54.2060802329122
ROCHA,SAN MATEO,Dr. Fonseca 1327,LASCANO,-33.6761611901172,-54.2085094742111
ROCHA,JAZMIN,Luis A. de Herrera s/n,ROCHA,-34.489849515503,-54.3244104795718
ROCHA,URUGUAY - ROCHA,18 de Julio 129,ROCHA,-34.4804792360189,-54.3346761295997
ROCHA,SILVA,Lavalleja 119 esquina 18 de julio,ROCHA,-34.4819862849084,-54.3329001531618
ROCHA,LA PEDRERA,Pitanga c/ Avda. Principal,LA PEDRERA,-34.5912630795436,-54.1275165004003
ROCHA,DEL PUEBLO - VELAZQUEZ,Hilario Gómez y Mario Sobrero,VELAZQUEZ,-34.0359646201238,-54.2815038906542
SAN JOSE,18 SAN JOSE,A. de Figueroa 600 e/ 18 de Julio,SAN JOSE DE MAYO,-34.339916384013,-56.7180643057442
SAN JOSE,4 DE OCTUBRE,Luis A.de Herrera 456 e/ Artigas,SAN JOSE DE MAYO,-34.3441804539428,-56.7134692485681
SAN JOSE,ABE BELLINI,18 de Julio 582 e/ 25 de Mayo,SAN JOSE DE MAYO,-34.3388409239515,-56.7126064950252
MALDONADO,LOS ANGELES,Artigas y Misiones,PIRIAPOLIS,-34.8571983612637,-55.2807662922329
MALDONADO,MACHADO,Rambla de los Argentinos 1192,PIRIAPOLIS,-34.8667704586561,-55.2765743243569
MALDONADO,LA CABINA,Av. Los Laureles s/n,LAS FLORES,-34.8131075437633,-55.3317880526358
MALDONADO,OLAZA,Felix de Lizarza 749,PAN DE AZUCAR,-34.7757289361607,-55.2251915686737
MALDONADO,BIKINI,Ruta 10 Km 164,MANANTIALES,-34.905163189353,-54.8270463923113
MALDONADO,PORTEZUELO,Ruta Interbalnearia Km. 117.500,PUNTA BALLENA,-34.8778305600882,-55.0573111749856
PAYSANDU,DOROTTE NORTE,Dr. Roldán esq. Andresito,PAYSANDU,-32.301989995673,-58.0806611785433
PAYSANDU,FERROCARRIL,Cerrito 1305 e/ P.Larrañaga,PAYSANDU,-32.3112337831199,-58.0759328505652
PAYSANDU,HEINZEN,18 de Julio 878,PAYSANDU,-32.3165830694959,-58.0873064260517
PAYSANDU,INGLESA II,Leandro Gómez 1013,PAYSANDU,-32.3177146917272,-58.0861566052172
SAN JOSE,SENAQUE ,Ciganda y Oribe (Plaza Independencia),SAN JOSE DE MAYO,-34.3401986674303,-56.7079100543683
SAN JOSE,TERMINAL,Artigas 779 e/ Ansina,SAN JOSE DE MAYO,-34.3353004537674,-56.715871639482
SAN JOSE,BIDEGAIN,25 de Agosto 980,LIBERTAD,-34.6340907666412,-56.6189604190245
SAN JOSE,PRINCIPAL,25 de Agosto 1105 bis,LIBERTAD,-34.63610179726,-56.6209160864492
SAN JOSE,LIBERFARMA,Rivas Costas 1071,LIBERTAD,-34.6372883651772,-56.621100131662
SAN JOSE,BRICCOLA,Santiago Rodríguez 915,RODRIGUEZ,-34.3819772816103,-56.5394683626362
SAN JOSE,DANJOVI,Av. Río de la Plata Parada 5 y 1/2,PLAYA PASCUAL,-34.7427814668015,-56.4511633908343
SAN JOSE,DARIEL,Av. Artigas s/n,ECILDA PAULLIER,-34.3576052199918,-57.0456135815067
SAN JOSE,MARINE,César Rodríguez Bonavita,ECILDA PAULLIER,-34.3568373561585,-57.0464915237217
SAN JOSE,DEL 26,Ruta 1 Km 26.600 M. 192 S.3,DELTA DEL TIGRE Y VILLAS,-34.7647220601713,-56.3967055486784
SAN JOSE,EL MAGO,Ruta 1 Km. 72 - Artigas 519,RAFAEL PERAZA,-34.5249458020123,-56.7972463287802
SAN JOSE,KIYU,Luz Marina s/n,KIYU-ORDEIG,-34.6981553842516,-56.7399131099726
SAN JOSE,RAPETTI,San José 649,RAFAEL PERAZA,-34.5251816669552,-56.7989605021678
SORIANO,AGRACIADA,Treinta y Tres y 19 de Abril,AGRACIADA,-33.8092175794189,-58.2671626323246
SORIANO,ASENCIO,Av. Asencio 1549,DOLORES,-33.5290395712644,-58.2183594036136
SORIANO,DOLORES,Asencio 2199 e/ Alberto Saavedra,DOLORES,-33.5394628171149,-58.2111800679805
SORIANO,VALENTINA,Puig 1848,DOLORES,-33.5333650609416,-58.2141274962327
SORIANO,BELLINI,Fregeiro 738,MERCEDES,-33.2578874846702,-58.0276822063525
SORIANO,FERNANDEZ GENOLET ,F.D.Roosevelt 706 e/ Colón,MERCEDES,-33.2497010571492,-58.0301652493642
SORIANO,MONTAÑO,Lavalleja 402 e/ Florencio Sánchez,MERCEDES,-33.2502164232193,-58.0218321050161
SORIANO,FARMASHOP 112 GO-BA,Av. Grito de Asencio 1751,DOLORES,-33.5324060494451,-58.215956077739
SORIANO,SAN ROQUE 32,Colón 278 e/ Careaga y Roosevelt,MERCEDES,-33.2492432635049,-58.030625828771
SORIANO,DRABBLE,José Enrique Rodó,JOSE ENRIQUE RODO,-33.6985421280611,-57.5324301113389
SORIANO,ESCANDA,Ruta 2 Km. 209.500,JOSE ENRIQUE RODO,-33.6974011951634,-57.5352474385619
SORIANO,POLY,SD,PALMITAS,-33.5096757499452,-57.8035944308781
SORIANO,RISSO,Calle 7 esquina 8,RISSO,-33.624579764619,-57.5714695937276
SORIANO,SORIA,Bvar. Cardona 1379 e/ Barboza,CARDONA,-33.873192089511,-57.3688642686736
SORIANO,ZAFIRO,Bvar Rodó e/ Zorrilla de San Martín,PALMITAS,-33.5075894012096,-57.800061098342
SORIANO,SINERGIA,Joaquin Suarez y Barboza,CARDONA,-33.8699876465155,-57.3687543508796
TACUAREMBO,BENGOECHEA - PASO DE LOS TOROS,Leandro Gómez 521,PASO DE LOS TOROS,-32.8123349524286,-56.5098038243431
TACUAREMBO,BERO,Bvar. Artigas 358,PASO DE LOS TOROS,-32.8130303893148,-56.5062726334635
TACUAREMBO,DEMILTON,Angela B. de López 525,PASO DE LOS TOROS,-32.8079878487388,-56.5202362085041
TACUAREMBO,CINA CINA,Yamandú Gamba 94,SAN GREGORIO DE POLANCO,-32.6178670561264,-55.8359144440821
TACUAREMBO,ESPONDA,Gral Artigas 163,SAN GREGORIO DE POLANCO,-32.6147135149523,-55.8341967244543
TACUAREMBO,CLAVIJO,Ruta 26 - Las Toscas,LAS TOSCAS,-32.1832556877454,-55.0108130203985
TACUAREMBO,RUTA 26,Ruta 26 Km. 348,LAS TOSCAS,-32.1798266192384,-55.0092765190471
TACUAREMBO,BRISAN,María Olimpia y 18 de Julio ,TACUAREMBO,-31.7177132213826,-55.9851055388701
TACUAREMBO,DEL PARQUE,18 Julio 126,TACUAREMBO,-31.7106463443922,-55.9773917829391
TACUAREMBO,DEL PUEBLO - TACUAREMBO,25 de Mayo 187,TACUAREMBO,-31.7112523015506,-55.979741637582
TACUAREMBO,HIARDIE,Pablo Rios 149,TACUAREMBO,-31.7257480559119,-55.9723473863345
TACUAREMBO,LA 16,Catalogne 323,TACUAREMBO,-31.7204282242353,-55.9832168412334
TACUAREMBO,LICANDRO,César Ortiz y Ayala 151 e/ Dr.Ferreira,TACUAREMBO,-31.7146299224908,-55.9859098092804
TACUAREMBO,NUEVA - TACUAREMBO,18 de Julio 275 e/ 25 de Agosto,TACUAREMBO,-31.714264774281,-55.9816759787449
TACUAREMBO,POPULAR,25 de Mayo 267,TACUAREMBO,-31.7135391996056,-55.9822929533062
TACUAREMBO,RINIHUE,Ituzaingó 226 e/ 18 de Julio,TACUAREMBO,-31.7131394252725,-55.9800737335831
TACUAREMBO,SANDU,25 de Mayo 250,TACUAREMBO,-31.7131740513959,-55.9816035786688
TACUAREMBO,SANTA CRUZ,25 de Mayo 457 bis,TACUAREMBO,-31.7185615614044,-55.9877245329262
TACUAREMBO,LA RUTA,Villa Ansina,ANSINA,-31.8789885881661,-55.4630343962543
TREINTA Y TRES,ESPAÑA,José E.Rodó 1452 esq. L.Macedo,TREINTA Y TRES,-33.2299574085044,-54.3781472437481
TREINTA Y TRES,OLIMAR I,Pablo Zufriategui 449,TREINTA Y TRES,-33.2317915046586,-54.3824428075925
TREINTA Y TRES,SANFER I,Juan A. Lavalleja 1265,TREINTA Y TRES,-33.2261910915298,-54.387580782135
TREINTA Y TRES,JAQUE MATE,Rúben Artigas s/n,SANTA CLARA DE OLIMAR,-32.9235399204983,-54.94641503769
TREINTA Y TRES,LUDOMAR (EX HOLINA),Av. Centenario s/n,CERRO CHATO,-33.1036242725517,-55.1307097402975
TREINTA Y TRES,VERGARA,Marcelo Barreto 1155,VERGARA,-32.9379630181485,-53.938347956979
TACUAREMBO,SAN ROQUE 53,25 de mayo 321,TACUAREMBO,-31.714862861866,-55.9837755809509
TACUAREMBO,SAN ROQUE 50,25 de Mayo 208,TACUAREMBO,-31.7121510068427,-55.9805081340395
SORIANO,SAN ROQUE 23 - MERCEDES SHOPPING,Don Bosco casi Artigas (Shopping),MERCEDES,-33.2574779775766,-58.0279087817059
TACUAREMBO,FARMASHOP 41,25 de Mayo 293,TACUAREMBO,-31.7142506090488,-55.9830688932519
CANELONES,ATENEA 6,SD,EL PINAR,-34.8028849447173,-55.908269630717
CANELONES,ACOSTA,Durante y Montevideo s/n,SAN ANTONIO,-34.4526668234108,-56.0814830950414
CANELONES,AEROPUERTO,Av. Del Lago 2 y Carrá,PASO CARRASCO,-34.861330539272,-56.0522074554004
CANELONES,LUNA,Garibaldi 21,PASO CARRASCO,-34.8545230445143,-56.0428106466214
CANELONES,AL MAR,Av. Tomás Berreta s/n,SANTA ROSA,-34.4977095382924,-56.0368517147303
CANELONES,SANTA ROSA,Av. Tomás Berreta ,SANTA ROSA,-34.4990363331229,-56.0391313745752
CANELONES,AREVALO I,Treinta y Tres 1055,PANDO,-34.7215862817662,-55.9584858394703
CANELONES,AREVALO III,Francisco Menezes 1057,PANDO,-34.7196647137927,-55.9572049905811
CANELONES,AREVALO II,25 de Agosto 928,PANDO,-34.7172244506706,-55.9572713922987
CANELONES,SAN ROQUE BOSCA,Wilson Ferreira 1047 ,PANDO,-34.7194735014392,-55.9609308647358
CANELONES,FARMASUR,Piovene 1031,PANDO,-34.7185906045273,-55.9602004458421
CANELONES,ARRECHEA,Av. Artigas y Palmar,PROGRESO,-34.6682289108257,-56.216839170634
CANELONES,ATENEA 1,Giannattasio Km 27200,LOMAS DE SOLYMAR,-34.8076247290953,-55.9315540765965
CANELONES,ATENEA 2,SD,LOMAS DE SOLYMAR,-34.8052713217476,-55.927440716189
CANELONES,ATENEA 5,SD,EL BOSQUE,-34.8327962968106,-55.9771966772712
CANELONES,ATENEA 3,SD,SAN JOSE DE CARRASCO,-34.8401124263904,-55.9967194393581
CANELONES,PIGALLE - DE LA COSTA,Calcagno M.40 S.8,PARQUE CARRASCO,-34.8501556197213,-55.9995956516736
CANELONES,SAN ROQUE 03 - COSTA URBANA,Av. Giannattasio Km. 21,SAN JOSE DE CARRASCO,-34.8407655401039,-55.9937474579644
CANELONES,ATENEA 4,SD,SHANGRILA,-34.8542187406124,-55.9907487868276
CANELONES,AVENIDA,Gral. Flores 685 e/ Cabrera y Garibaldi,LAS PIEDRAS,-34.7280872905045,-56.2190763764643
CANELONES,BARROS BLANCOS,Ruta 8 Km.25,BARROS BLANCOS,-34.7585492416318,-56.010784206494
CANELONES,YALALE I,SD,BARROS BLANCOS,-34.7507690772766,-55.9980144491309
CANELONES,FARMACITY,Blvd Artigas esquina 22,ATLANTIDA,-34.7715995348598,-55.7612060979806
SALTO,ALBISU,Uruguay 554,SALTO,-31.3872726598667,-57.9686673361458
SALTO,CALERO,Uruguay 1099,SALTO,-31.3878518517987,-57.9612990312371
SALTO,CHIAZZARO,Uruguay 666,SALTO,-31.3874461442426,-57.9670964146321
SALTO,SAN ROQUE 33,Uruguay 839,SALTO,-31.3874925888786,-57.9647222741183
SALTO,VANT´HOFF,Av. Uruguay 1799,SALTO,-31.3887950877163,-57.9519247278564
SALTO,SAN ROQUE 19,B. y Ordoñez 2265 loc.117 (Shopping),SALTO,-31.3844388540578,-57.9445024652088
SALTO,NUEVA REPUBLICA,Av. Solari 1702,SALTO,-31.4046108523127,-57.9701672246868
SALTO,SAN ROQUE 46,Dr. Fco. Soca 220,SALTO,-31.385222948796,-57.963430020421
SALTO,SAN ROQUE 47,Grito de Asencio 1499,SALTO,-31.373072212392,-57.9638780745571
CANELONES,TIENDA INGLESA,SD,ATLANTIDA,-34.7677934815506,-55.7673597554898
PAYSANDU,SAN ROQUE 08 SHOPPING,Bvard. Artigas 770 Shopping loc. 001,PAYSANDU,-32.3215176483097,-58.0704776814073
RIVERA,SAN ROQUE 40,Sarandí 665,RIVERA,-30.9018452195837,-55.5411107175205
CANELONES,SAN GIOVANNI,Tuyutí M.522 S.18,LOMAS DE SOLYMAR,-34.8157064859644,-55.9274354624616
CANELONES,SAN RAMON,Av. José B. y Ordoñez 1215,SAN RAMON,-34.2855374541259,-55.9568623220986
CANELONES,SAN ROQUE 18 - GEANT,Av. La Playa y Giannattasio,BARRA DE CARRASCO,-34.8655986716463,-56.0239708115542
CANELONES,SAN ROQUE 24 - AEROPUERTO DE CARRASCO,Aeropuerto de Carrasco - Ruta 101 km 19.950,AEROPUERTO INTERNACIONAL DE CARRASCO,-34.8367818904496,-56.0161754292486
CANELONES,SAUCE,Carmelo Renée González 2132,SAUCE,-34.6505032106899,-56.0653406023824
CANELONES,SU FARMACIA,Calle 11 y 26 Padrón 126 M.180,ATLANTIDA,-34.7719707497739,-55.76495639569
CANELONES,FARMASHOP 94,Calle 11 Esq. Ciudad de Montevideo,ATLANTIDA,-34.7738400296182,-55.7614496619163
CANELONES,ESTACION ATLANTIDA,Calle El Ibirapitá s/n entre Ruta 11 y El Canelón,ESTACION ATLANTIDA,-34.7425684744217,-55.7637312397482
CANELONES,SUDRIERS,Luis A. de Herrera s/n,EMPALME OLMOS,-34.6943834397004,-55.8979407456531
CANELONES,TORRE 18,Giannattasio Km. 18,PARQUE CARRASCO,-34.8565891802779,-56.011134287842
CANELONES,YALALE VI,Giannattasio Km 21.000 M.121 S.18,LAGOMAR,-34.8389161911874,-55.9886275496075
CANELONES,GALET,Ruta 6 Km 23.100,VILLA CRESPO Y SAN ANDRES,-34.7363248330596,-56.0938558358123
CANELONES,TUNDISI COUNTRY,Camino de los Horneros Km. 3,RURAL,-34.7915926171634,-55.9766889505886
CANELONES,JAUREGUIBERRY,Calle 10 (Av. Artigas) esq. Calle 3 (Apereá),JAUREGUIBERRY,-34.7854078982857,-55.3986739257264
CANELONES,SAN ROQUE,Bvard. Bicentenario 318,LAS PIEDRAS,-34.7253867282944,-56.2032913420492
LAVALLEJA,SAN ROQUE 56,"Luis Alberto de Herrera 950, Minas - Lavalleja.",MINAS,-34.3687307134962,-55.2377947304358
MONTEVIDEO,PIGALLE MAYO,Andes 1397 esq. Colonia,MONTEVIDEO,-34.9055140673031,-56.1983257498767
MONTEVIDEO,PIGALLE PALERMO,Dr. Carlos M. Morales 946 esq. Av. Gonzalo Ramírez,MONTEVIDEO,-34.9127131396331,-56.18327519264
MONTEVIDEO,PIGALLE PONCE,Av. Gral. Rivera 2475 esq. Av. Luis P. Ponce,MONTEVIDEO,-34.9026372282933,-56.161803522149
MONTEVIDEO,PIGALLE TRES CRUCES,E. Victor Haedo 2356 esq. Dr. Mario Cassinoni,MONTEVIDEO,-34.8955250727704,-56.1657995491809
MONTEVIDEO,SAN ROQUE 12 - TRES CRUCES SHOPPING,"Bvar. Artigas 1825, local 48",MONTEVIDEO,-34.8937266459966,-56.165881100753
MALDONADO,PIGALLE PUNTA DEL ESTE,Av. Juan Gorlero y Calle 19,PUNTA DEL ESTE,-34.9646471390442,-54.9462349549459
MONTEVIDEO,SAN ROQUE 01 - CORDON,18 de julio 1551,MONTEVIDEO,-34.9042056991433,-56.1824201146911
MONTEVIDEO,SAN ROQUE CENTRO,18 de Julio 1078 esq. Paraguay,MONTEVIDEO,-34.9061336528329,-56.1929189713118
MONTEVIDEO,SAN ROQUE 04 - YI,18 de Julio 1252 esq. Yi,MONTEVIDEO,-34.9058514523576,-56.1889846471633
MONTEVIDEO,FARMASHOP 56,Fco. Joaquin Muñoz 2951,MONTEVIDEO,-34.9067867603358,-56.1500045371791
MONTEVIDEO,FARMASHOP 8,Manuel Vicente Pagola 3205,MONTEVIDEO,-34.9079492004413,-56.1462170424556
MONTEVIDEO,FARMASHOP 40,Gabriel Pereira 3209,MONTEVIDEO,-34.909867962337,-56.1471940807215
MONTEVIDEO,FARMASHOP 12,Juan Benito Blanco 1098,MONTEVIDEO,-34.9119853690608,-56.1469615927004
MONTEVIDEO,FARMASHOP 57,Av. Gral Rivera 3500,MONTEVIDEO,-34.9014027497713,-56.1386788390881
MONTEVIDEO,FARMASHOP 25,Av. Gral Rivera 4241,MONTEVIDEO,-34.8959024951962,-56.1220647742386
MONTEVIDEO,FARMASHOP 20,Av. Italia 2490,MONTEVIDEO,-34.8937777312566,-56.1616039237
MONTEVIDEO,FARMASHOP 47,Av. Italia 3428,MONTEVIDEO,-34.8878419295027,-56.1393924890262
TREINTA Y TRES,FAMASHOP 66,Manuel Melendez 1135,TREINTA Y TRES,-33.2300174329242,-54.3842213536156
ARTIGAS,MAYRA,Garzón y Treinta y Tres,ARTIGAS,-30.4030521907569,-56.4692382304979
ARTIGAS,POLLINI,Pte. Berreta 400 e/ Lavalleja,ARTIGAS,-30.4021981600648,-56.4657462825746
ARTIGAS,POPULAR,Garzón 300 e/ Rivera,ARTIGAS,-30.3995602428336,-56.4659258684678
ARTIGAS,SAN PIO,José Batlle y Ordoñez esq. 25 de Agosto,BALTASAR BRUM,-30.7213669668143,-57.3282851604795
CERRO LARGO,FLEMING I,Virrey Arredondo 980,RIO BRANCO,-32.5910346683111,-53.3812151409058
CERRO LARGO,SAN ROQUE 49,Justino Muniz 768,MELO,-32.3683300762273,-54.1694370056791
CERRO LARGO,SAN ROQUE - PRACTIFARMA 48,Villanueva Saravia 777,MELO,-32.3638752982819,-54.1662729121068
CERRO LARGO,SANTA VERONA,Cerro Largo s/n esquina Avenida Brasil,TUPAMBAE,-32.8359631171509,-54.7622423276314
CERRO LARGO,SANTA HIGINIA,Av.José G. Artigas 730,ACEGUA,-31.8685126959416,-54.1660111025513
COLONIA,ANTARES,Sarandí y Rivera,ROSARIO,-34.3135787389337,-57.3528137752379
COLONIA,ARRIETA,Gral. Artigas 928,NUEVA PALMIRA,-33.8714750479464,-58.4105921305444
COLONIA,ARTIGAS - OMBUES DE LAVALLE,Zorrilla de San Martín 1059,OMBUES DE LAVALLE,-33.9377648079602,-57.8088981260807
COLONIA,LA ROTONDA,Julio César González Moreno 203,COLONIA DEL SACRAMENTO,-34.4544556626716,-57.841273916065
COLONIA,BORRAS,Ituzaingó 399 y 25 de Mayo,ROSARIO,-34.3129970437183,-57.3515236913435
COLONIA,CAROLI,Carmelo 2202,TARARIRAS,-34.2638037941528,-57.6134230315782
COLONIA,CORMAR,Calle 20 esq. 5,JUAN LACAZE,-34.4179435189341,-57.4516474784387
COLONIA,DA COSTA,Gral. Flores 321,COLONIA DEL SACRAMENTO,-34.4703961171208,-57.8479678489587
COLONIA,DEL BRAVO,Av del Bravo 1175,NUEVA PALMIRA,-33.8758118861802,-58.4043342041788
COLONIA,FELIX,Cnel. Lorenzo Latorre 1288,COLONIA DEL SACRAMENTO,-34.4498077456986,-57.8428160490113
COLONIA,FEMME,19 de Abril 282,CARMELO,-33.999540938111,-58.2839830245925
COLONIA,FLORENCIO SANCHEZ,Colonia y 25 de Agosto,FLORENCIO SANCHEZ,-33.8749066544704,-57.3726617783876
COLONIA,HELVETICA,Luis A. de Herrera 1101 e/ Artigas,NUEVA HELVECIA,-34.2890955803433,-57.2336841959906
COLONIA,LLUBERAS,Gral. Artigas 1896,TARARIRAS,-34.2653732868966,-57.6117803689677
COLONIA,MALLARINI,25 de Agosto 1111 e/ Luis Dreyer,NUEVA HELVECIA,-34.2862591164903,-57.2320986846846
COLONIA,MIGUELETE,25 de Agosto 1111 e/ Luis Dreyer,MIGUELETE,-34.0072907094688,-57.647492655635
COLONIA,NUEVA TROCHE,Av. Dr. Armand Ugón 1358,COLONIA VALDENSE,-34.3414319006366,-57.2651407450461
COLONIA,OMBUES,Zorrilla de San Martín 838,OMBUES DE LAVALLE,-33.9408024864349,-57.812435611239
MONTEVIDEO,FARMASHOP 68,Av. Italia 2863,MONTEVIDEO,-34.8903713403145,-56.1526104630358
MONTEVIDEO,FARMASHOP 70,Uruguayana 3501,MONTEVIDEO,-34.8698594225038,-56.2094044908478
COLONIA,PALMIRENSE,Gral. Artigas 970,NUEVA PALMIRA,-33.8720221232809,-58.410005824783
COLONIA,PUERTO SAUCE,Av. Artigas 487,JUAN LACAZE,-34.4322403440908,-57.4417858424955
COLONIA,RUBENS,José Salvo 310,JUAN LACAZE,-34.4348521907106,-57.439759127972
COLONIA,SAN ROQUE 29 - COLONIA SHOPPING,Shopping Colonia Del Sacramento,COLONIA DEL SACRAMENTO,-34.4666923082829,-57.8348973756498
COLONIA,SAN ROQUE 37,Av. Artigas 389,COLONIA DEL SACRAMENTO,-34.466875212423,-57.8430025395072
COLONIA,VALDENSE,Av. Armand Ugón 1013,COLONIA VALDENSE,-34.3369096039706,-57.2595488595422
COLONIA,SAN ROQUE 44,Berna 1295,NUEVA HELVECIA,-34.2842102225498,-57.2335267637612
COLONIA,NUEVA,Lavalleja 2000,TARARIRAS,-34.2688854853724,-57.6125660228954
COLONIA,PARANT,Los Aromos esquina Rincon del Rey,PLAYA PARANT,-34.4344698748787,-57.2559576646223
DURAZNO,LOMBARDI,Gral. Artigas 352 e/ Lavalleja ,DURAZNO,-33.3761269774048,-56.5265792994059
DURAZNO,SAN PEDRO,Herrera 874,DURAZNO,-33.3774732987059,-56.524643431093
DURAZNO,SAN ROQUE  38,Manuel Oribe 817,DURAZNO,-33.3795187622966,-56.522522384552
DURAZNO,DEL SARANDI,Presidente Berro 550,SARANDI DEL YI,-33.3451613985031,-55.6295438058566
DURAZNO,ROPIEL,Oribe 797,SARANDI DEL YI,-33.3389437028283,-55.6280132025848
DURAZNO,YATAY,Sarandí 414,SARANDI DEL YI,-33.3445532117727,-55.6320616989209
FLORES,2212 NORTE,Inés Durán 657 e/ Carlos Mª Ramírez,TRINIDAD,-33.5131804411714,-56.8994533856561
FLORES,DEL REPUBLICA,Luis A. de Herrera y T.y Tres,TRINIDAD,-33.5196948691188,-56.8984931727094
FLORES,DERMIT,Francisco Fondar 479,TRINIDAD,-33.5148015381128,-56.8972068092197
FLORES,SAN ROQUE 36,Francisco Fondar 649,TRINIDAD,-33.5177197271802,-56.8973773945365
FLORES,OSTRA CENTRO,Francisco Fondar 691,TRINIDAD,-33.5185179377192,-56.8974031432636
FLORES,MODERNEL,18 de Julio y Fco.Fondar,TRINIDAD,-33.5206636649746,-56.8975190125354
FLORES,OSTA BATLLE,Batlle y Ordoñez 865,TRINIDAD,-33.5216657196029,-56.8954269284614
FLORES,VIDAL,Gral. Artigas 368,ISMAEL CORTINAS,-33.959373037775,-57.0901068423043
PAYSANDU,ILEANA II,19 de Abril 1302 e/ P. Larrañaga,PAYSANDU,-32.3104782653534,-58.0822676188746
PAYSANDU,LLUBERAS GUICHON,18 de Julio 325,GUICHON,-32.3581631010174,-57.2015193341863
PAYSANDU,MEDICCI II,Av. España 1549,PAYSANDU,-32.318109546268,-58.0737060033088
PAYSANDU,NANITOS,25 de Agosto 381,GUICHON,-32.3590193082622,-57.2005040686786
PAYSANDU,OLALDE II,Montecaseros e/ Colón,PAYSANDU,-32.3223647105647,-58.0809997828562
PAYSANDU,SAN ROQUE 35,19 de Abril e/ L.Gómez y 18 de Julio,PAYSANDU,-32.3178746106144,-58.0840251635795
PAYSANDU,SUIZA,Leandro Gómez 989,PAYSANDU,-32.3176661621189,-58.0865696583611
RIO NEGRO,BARRIO FB 2000,Rep. de Chile y calle Pública,FRAY BENTOS,-33.1166814980038,-58.3011701061293
RIO NEGRO,LA MUTUALISTA,Rincón 1102,FRAY BENTOS,-33.1161178814249,-58.3146916933905
RIO NEGRO,LAS CAÑAS,18 de Julio 1643,FRAY BENTOS,-33.1218704179707,-58.3053785590431
RIO NEGRO,SAN ROQUE 34,18 de Julio 1707,FRAY BENTOS,-33.1228465428315,-58.3041175863582
RIO NEGRO,FRAY BENTOS,SD,FRAY BENTOS,-33.1254032257407,-58.3009729705925
RIO NEGRO,ALZAIBAR,SD,FRAY BENTOS,-33.1196871636114,-58.3084797528844
RIO NEGRO,RIO URUGUAY,18 de Julio 1308,FRAY BENTOS,-33.1180006560673,-58.3106525859819
RIO NEGRO,CREVOISIER,Av. 18 de Julio 1830,YOUNG,-32.7012563637257,-57.628976286786
RIO NEGRO,GARCEN,18 de Julio y Oribe ,YOUNG,-32.7067609974296,-57.6380685800171
RIO NEGRO,SAN SEBASTIAN,Montevideo 3547,YOUNG,-32.699452337291,-57.635816684411
RIO NEGRO,LONG,18 de Julio 1886,YOUNG,-32.7006822127039,-57.6279487760775
RIO NEGRO,SAN JAVIER (EX SABELIN),Basilio Lubker s/n,SAN JAVIER,-32.6656720534519,-58.1354067517631
RIVERA,AVENDA II,Bvar. Artigas 186 bis,VICHADERO,-31.7766250996078,-54.6893933669193
RIVERA,VICHADERO,25 de Agosto s/n,VICHADERO,-31.7803245738665,-54.6928140402194
RIVERA,BERSANA - TRANQUERAS,18 de Julio 550,TRANQUERAS,-31.189605176893,-55.7675701472879
RIVERA,TRANQUERAS,18 de Julio 597,TRANQUERAS,-31.1899364282984,-55.7669977448593
RIVERA,DR.DAVISON,Dr. Davison,MINAS DE CORRALES,-31.5713308412581,-55.4708728731904
RIVERA,SERRALEX,Dr. Davison,MINAS DE CORRALES,-31.5699377862343,-55.4724687677544
RIVERA,LUCHILD,18 de Julio 712,TRANQUERAS,-31.1920551122875,-55.7642417331661
RIVERA,NARBONDO,Av. Brasil 895,RIVERA,-30.9009669586754,-55.5458143932101
RIVERA,RAFAEL,Artigas 452 e/ Ansina,RIVERA,-30.8945731589011,-55.5522338466535
RIVERA,TALITA,Presidente Viera 1299,RIVERA,-30.9085038557659,-55.5417573408869
CANELONES,VERO,Ruta 8 Km 28.000,BARROS BLANCOS,-34.7411028124717,-55.9831699812731
CANELONES,LOS AROMOS,SD,BARROS BLANCOS,-34.770073744039,-56.025448637491
CANELONES,BERSANA II - LA PAZ,Av. Artigas 265,LA PAZ,-34.7624441421727,-56.223996698882
CANELONES,BOLOGNA,Av. República Argentina s/n,PARQUE DEL PLATA,-34.7518533158229,-55.7094620503945
CANELONES,CERRILLOS,Gral. Máximo Tajes s/n ,CERRILLOS,-34.607958270339,-56.3607717847404
CANELONES,CUCHILLA ALTA,Av. Agustin Ponds s/n y Rambla,CUCHILLA ALTA,-34.7951512083968,-55.4955199269649
CANELONES,DE DEL,Luis A. de Herrera s/n,SAN JACINTO,-34.5435324473836,-55.8720306195543
CANELONES,MARIA VERA,SD,SAN JACINTO,-34.5450198898352,-55.8719096388336
CANELONES,DEL CAMINO,Av. Artigas y Municipio,LAS PIEDRAS,-34.7274776418743,-56.2271475527828
CANELONES,DEL MOLINO,Dr. Pouey y Ramón Ortiz,LAS PIEDRAS,-34.7375711370083,-56.2239240356505
CANELONES,ELISAR CENTRO,Av. Artigas 629,LAS PIEDRAS,-34.7271161392881,-56.2172031357903
CANELONES,ELISAR,República Argentina 592,LAS PIEDRAS,-34.7263502681964,-56.2109523321786
CANELONES,ESTE,Gregorio Migues y J.P.Varela,MIGUES,-34.4879172199425,-55.6299621469725
CANELONES,FARMAIS,Ruta 5 Km. 28.500,PROGRESO,-34.6657053167067,-56.2194752837482
CANELONES,GUADALUPE,J. B. y Ordoñez 339 e/ C. Mayo G.,LA PAZ,-34.7629489894089,-56.2274350451259
CANELONES,JUAN ANGEL,Roosevelt 59,SANTA LUCIA,-34.4546895146348,-56.3877789368911
CANELONES,LA FLORESTA,Treinta y Tres y Argentina,LA FLORESTA,-34.7602788059595,-55.6771241039834
CANELONES,MARIMAR,Interbalnearia Km. 39.200,SALINAS,-34.7738278649354,-55.8315361319538
CANELONES,MARSO,Dr. Legniani 452,SANTA LUCIA,-34.4537632265564,-56.3896701979328
CANELONES,MARTIN,Feliciano Viera s/n,MIGUES,-34.4889410575383,-55.6291173410874
CANELONES,NUEVA - CANELONES,Treinta y Tres 549 esq Rodó,CANELONES,-34.5247638431681,-56.2813042635258
CANELONES,FARMASHOP 98,Jose Batlle y Ordoñez 181,LA PAZ,-34.7629156510374,-56.224611057985
CANELONES,PACCINI CENTRO,Pedro Rosa Guiffini e/ J.B.y Ordoñez,LA PAZ,-34.7629264351719,-56.2256301586975
CANELONES,PIRUJAS,Batlle y Ordoñez 769,CANELONES,-34.5206820947166,-56.2820119830909
CANELONES,POPULAR - TALA,18 de Julio e I. De León,TALA,-34.3449685636386,-55.7615225487106
CANELONES,SAN BAUTISTA,Treinta y Tres Orientales s/n,SAN BAUTISTA,-34.4404990451774,-55.9618963200477
CANELONES,"626",Ruta 87 esq. Abaroré,SALINAS,-34.7703669916516,-55.8412012244068
CANELONES,BATLLE Y ORDOÑEZ,Batlle y Ordóñez 509,LAS PIEDRAS,-34.7260748555975,-56.212528242301
CANELONES,FARMACOSTA,25 de Agosto esq. Gran Bretaña,COSTA AZUL,-34.7678178146681,-55.6548013330294
MONTEVIDEO,PIGALLE 1,Félix Buxareo 1158 esq. Echevarriarza,MONTEVIDEO,-34.9081036873989,-56.1433024034392
MONTEVIDEO,PIGALLE 2,Av. Brasil 2570 esq. Gral. Brito del Pino,MONTEVIDEO,-34.9077088061025,-56.1584323661541
MONTEVIDEO,PIGALLE 3,Juan Benito Blanco 994 esq. José Martí,MONTEVIDEO,-34.9136491943004,-56.1486933915725
MONTEVIDEO,PIGALLE 4,21 de setiembre 2948 esq. Tomás Diago,MONTEVIDEO,-34.9196432348483,-56.1534820426559
MONTEVIDEO,PIGALLE 8 DE OCTUBRE,Av. 8 de Octubre 2547 esq. Presidente Berro,MONTEVIDEO,-34.8919250000819,-56.1625614510141
MONTEVIDEO,PIGALLE ALVAREZ,Av. Garibaldi 2567 esq. Monte Caseros,MONTEVIDEO,-34.8863852160978,-56.1633898432989
MONTEVIDEO,PIGALLE CANADA,Av. Bolivia 1429 esq. San Nicolás,MONTEVIDEO,-34.893083890843,-56.0666467871431
MONTEVIDEO,PIGALE CIELMAR,Rincón 700 esq. Juncal,MONTEVIDEO,-34.9054968985511,-56.2013313545266
MONTEVIDEO,PIGALLE CORDON,Av. 18 de julio 2051 esq. Martín C. Martínez,MONTEVIDEO,-34.8997983036109,-56.1709183410582
MONTEVIDEO,PIGALLE LYON,Av. 18 de julio 2102 esq. Joaquín Requena,MONTEVIDEO,-34.8995650947293,-56.169639269033
MONTEVIDEO,PIGALE DOMAR,Manuel V. Pagola 3295 esq. Chucarro,MONTEVIDEO,-34.9091137823093,-56.1450292937463
MONTEVIDEO,PIGALLE HERMES,Bvar. España 2502 esq. Obligado,MONTEVIDEO,-34.9121469284989,-56.1602136241758
MONTEVIDEO,PIGALLE MARAZUL,Av. 18 de julio 2151 esq. Juan Paullier,MONTEVIDEO,-34.8989112514234,-56.1687293251761
MONTEVIDEO,PIGALLE MASSONE,Gabriel Pereira 3148 esq. 26 de Marzo,MONTEVIDEO,-34.9090651375119,-56.1483614623669
MONTEVIDEO,SAN ROQUE 05 - MAM,Jose .L. Terra  2200   local   37 y 38,MONTEVIDEO,-34.8869220438387,-56.1832637192978
MONTEVIDEO,SAN ROQUE 06 - MONTEVIDEO SHOPPING,Luis A. de Herrera 1290 - Loc.152,MONTEVIDEO,-34.903035940713,-56.1369628625546
MONTEVIDEO,SAN ROQUE 09 - CONVENCION,18 de Julio 900 esq. Convención,MONTEVIDEO,-34.9064058639109,-56.1970955383462
MONTEVIDEO,SAN ROQUE 11 - PORTONES SHOPPING,Av. Italia 5775 - Loc. 201/206,MONTEVIDEO,-34.8813075030549,-56.0818888175839
MONTEVIDEO,SAN ROQUE 13 - PASO MOLINO,Agraciada 4214,MONTEVIDEO,-34.8562331167527,-56.2199298022915
MONTEVIDEO,SAN ROQUE 14 - PUNTA CARRETAS SHOPPING,Ellauri 350 - Loc. 109 y 145,MONTEVIDEO,-34.9237949073569,-56.1589647599658
MONTEVIDEO,SAN ROQUE 16 - MALVIN,Mississipi 1647 esq. Rivera,MONTEVIDEO,-34.8913153807953,-56.0963222480892
MONTEVIDEO,SAN ROQUE 17 - CERRO,Avenida Carlos María Ramírez 1490,MONTEVIDEO,-34.872807025375,-56.2468854418505
MONTEVIDEO,SAN ROQUE 21 - UNIVERSIDAD,Avenida 18 de Julio 1799 esq. Tristán Narvaja,MONTEVIDEO,-34.9022867359108,-56.1775060803973
MONTEVIDEO,SAN ROQUE 22 - ELLAURI,José Ellauri 512 esq. Montero,MONTEVIDEO,-34.9211970660995,-56.1572905588872
MONTEVIDEO,SAN ROQUE 28 - BENITO BLANCO,Gabriel Pereira 3298 esq. Benito Blanco,MONTEVIDEO,-34.9112209631352,-56.146253138583
MONTEVIDEO,SAN ROQUE 30 - CIUDAD VIEJA,Sarandí 699,MONTEVIDEO,-34.9064030304615,-56.2010777750302
MONTEVIDEO,SAN ROQUE 31 - UNION,8 de Octubre 3640,MONTEVIDEO,-34.8766542914216,-56.1430452089122
MONTEVIDEO,SAN ROQUE 42 - AROCENA,Arocena 1681 esq. Rivera,MONTEVIDEO,-34.8865889148,-56.0586395019627
MONTEVIDEO,SAN ROQUE 51 - CONSTITUYENTE,Constituyente 1789 esq. Gaboto,MONTEVIDEO,-34.9064786388207,-56.1778345052393
MONTEVIDEO,SAN ROQUE 52 - SALTERAIN,Rivera 2102 y Salterain,MONTEVIDEO,-34.9023579832384,-56.1700783477135
MONTEVIDEO,SAN ROQUE 58 - PAULLIER,Canelones 2198 esq. Paullier,MONTEVIDEO,-34.9070992574367,-56.1676714816088
MONTEVIDEO,SAN ROQUE 61 - PARQUE RODO,Av. Julio Herrera y Reissig 736,MONTEVIDEO,-34.915274411287,-56.1656552586939
MONTEVIDEO,SAN ROQUE 63 - COMERCIO,Av Italia 3830 esq. Solano López,MONTEVIDEO,-34.8870693429164,-56.1289615768167
MONTEVIDEO,FARMASHOP 64,SARANDI 502,MONTEVIDEO,-34.9075623586375,-56.2047542315016
MONTEVIDEO,FARMASHOP 130,18 de Julio 850,MONTEVIDEO,-34.9065085671296,-56.1982235594663
MONTEVIDEO,FARMASHOP 21,Colonia 903,MONTEVIDEO,-34.9052232250214,-56.1969287663131
MONTEVIDEO,FARMASHOP 43,Av. 18 de Julio 1331,MONTEVIDEO,-34.9055004556722,-56.1873643088605
MONTEVIDEO,FARMASHOP 33,Av. 18 de Julio 1487,MONTEVIDEO,-34.9047632741689,-56.1838485201527
MONTEVIDEO,FARMASHOP 108,Colonia 1800,MONTEVIDEO,-34.901627766427,-56.1779058393353
MONTEVIDEO,FARMASHOP 55,Av. 18 de Julio 1951,MONTEVIDEO,-34.9008695363254,-56.1737140819936
MONTEVIDEO,FARMASHOP 62,Bvar. Artigas 1481,MONTEVIDEO,-34.9013922164861,-56.1645009844893
MONTEVIDEO,FARMASHOP 52,20 de Setiembre 1525,MONTEVIDEO,-34.9010131014353,-56.1630747897743
MONTEVIDEO,FARMASHOP 42,Av. Ing Luis P. Ponce 1503,MONTEVIDEO,-34.9001476087461,-56.1596903118555
MONTEVIDEO,FARMASHOP 3,Av. Gral. Rivera 2755,MONTEVIDEO,-34.9032626539401,-56.1551876957507
MONTEVIDEO,FARMASHOP 50,Bvar. España 2167,MONTEVIDEO,-34.9087055222315,-56.1691001909372
MONTEVIDEO,FARMASHOP 99,Juan D. Jackson 1200,MONTEVIDEO,-34.9075239533648,-56.1730569016254
MONTEVIDEO,FARMASHOP 111,Jose Ellauri 411,MONTEVIDEO,-34.9226239031907,-56.1591363135014
MONTEVIDEO,FARMASHOP 15,21 de Setiembre 2867,MONTEVIDEO,-34.9189953243298,-56.1552796609489
MONTEVIDEO,FARMASHOP 22,Luis Franszini 806,MONTEVIDEO,-34.9161892822018,-56.1585124215967
MONTEVIDEO,FARMASHOP 38,Av. Sarmiento 2445,MONTEVIDEO,-34.9143735213281,-56.1603296539135
MONTEVIDEO,FARMASHOP 24,21 de Setiembre 2453,MONTEVIDEO,-34.9134097260508,-56.1620129849017
MONTEVIDEO,FARMASHOP 26,Bvar. España 2856,MONTEVIDEO,-34.914741382121,-56.1513656221127
MONTEVIDEO,FARMASHOP 13,Dr. Jose Scosería 2614,MONTEVIDEO,-34.9153123020716,-56.1557505227638
MONTEVIDEO,FARMASHOP 18,Av. Brasil 2851,MONTEVIDEO,-34.9112231614979,-56.1525221764455
MONTEVIDEO,FARMASHOP 39,Av. Brasil 2703,MONTEVIDEO,-34.9083700331884,-56.1553090898123
MONTEVIDEO,FARMASHOP 60,Av. Brasil 2500,MONTEVIDEO,-34.9071840499921,-56.1600280080633
MONTEVIDEO,FARMASHOP 11,Av. Luis A. De Herrera 2368,MONTEVIDEO,-34.8850491303632,-56.1499633367703
MONTEVIDEO,FARMASHOP 129,Av. Del Libertador 1953,MONTEVIDEO,-34.8987306089718,-56.1911254880499
MONTEVIDEO,FARMASHOP 28,Av. 8 de Octubre 3268,MONTEVIDEO,-34.8807495734161,-56.1500427947016
MONTEVIDEO,FARMASHOP 37,Av. 8 de Octubre 3439,MONTEVIDEO,-34.8787189818394,-56.147232338244
MALDONADO,FARMASHOP 123,Ruta 39 y Av. Luis Alberto de Herrera - Centro Comercial Paseo del Este Local 17,RURAL,-34.881267,-54.951757
MONTEVIDEO,FARMASHOP 29,Av. 8 de Octubre 3749,MONTEVIDEO,-34.8750661241662,-56.1408337676127
MONTEVIDEO,FARMASHOP 34,Av. 8 de Octubre 4002,MONTEVIDEO,-34.8722225602372,-56.1356763592966
MONTEVIDEO,FARMASHOP 32,Cno. Carrasco 4471,MONTEVIDEO,-34.8723461614637,-56.1220802243919
MONTEVIDEO,FARMASHOP 115,Veracierto 2563,MONTEVIDEO,-34.8711748926991,-56.1175069790149
MONTEVIDEO,EDANEL,SD,MONTEVIDEO,-34.8715780681281,-56.1183766019292
MONTEVIDEO,FARMASHOP 90,"Av. Luis Alberto de HErrera 3365, Nuevo Centro Shopping",MONTEVIDEO,-34.8692679023489,-56.16928706422
MONTEVIDEO,FARMASHOP 44,Av. Gral Flores 3315,MONTEVIDEO,-34.8675433709519,-56.1725595538334
MONTEVIDEO,FARMASHOP 10,Av. Gral San Martin 3083,MONTEVIDEO,-34.8698329365267,-56.1820297620852
MONTEVIDEO,FARMASHOP 5,Av. Agraciada 3665,MONTEVIDEO,-34.8656407949311,-56.2099150816283
MONTEVIDEO,FARMASHOP 9,Av. Joaquin Suarez 3458,MONTEVIDEO,-34.864387125349,-56.1952300787767
MONTEVIDEO,FARMASHOP 104,Av. Luis A. de Herrera 4111,MONTEVIDEO,-34.8611381788263,-56.1865161923151
MONTEVIDEO,FARMASHOP 61,Av. Agraciada 4104,MONTEVIDEO,-34.8581952924833,-56.2175459859156
MONTEVIDEO,FARMASHOP 23,Av. Agraciada 4269,MONTEVIDEO,-34.8558321547499,-56.2209876914938
MONTEVIDEO,FARMASHOP 89,Av. Carlos Maria Ramirez 802,MONTEVIDEO,-34.8650581034352,-56.2351385604741
MONTEVIDEO,FARMASHOP 119,Carlos Maria Ramirez 1851,MONTEVIDEO,-34.874700470538,-56.2546675542463
MONTEVIDEO,FARMASHOP 69,Av. Luis Batlle Berres 6149,MONTEVIDEO,-34.8392809237957,-56.2627304574205
MONTEVIDEO,FARMASHOP 72,Cno. Ariel 4931,MONTEVIDEO,-34.8328244177612,-56.217497377353
MONTEVIDEO,FARMASHOP 1,Cno. Ariel 4626,MONTEVIDEO,-34.835896263171,-56.2112786108817
MONTEVIDEO,FARMASHOP 132,Aparicio Saravia 4644,MONTEVIDEO,-34.8264554999868,-56.2014530849833
MONTEVIDEO,FARMASHOP 117,Avda. Jose Belloni 4371,MONTEVIDEO,-34.8236964697918,-56.140892059388
MONTEVIDEO,FARMASHOP 6,Av. Italia 6958,MONTEVIDEO,-34.8778009893525,-56.0574579852827
MONTEVIDEO,FARMASHOP 78,Av. Dr. Juan B. Alberdi 6502,MONTEVIDEO,-34.880297254767,-56.066542139122
MONTEVIDEO,FARMASHOP 77,Av. A. Arocena 1980 bis,MONTEVIDEO,-34.8813576983454,-56.0608989526461
MONTEVIDEO,FARMASHOP 16,Av. Alfredo Arocena 1657,MONTEVIDEO,-34.8872636496018,-56.0583620212536
MONTEVIDEO,FARMASHOP 73,Av. Gral Jose Maria Pez 1447,MONTEVIDEO,-34.8932853424877,-56.080190266946
MONTEVIDEO,FARMASHOP 51,Orinoco 4993,MONTEVIDEO,-34.896072526052,-56.0976234588697
MONTEVIDEO,FARMASHOP 14,Av. Enrique Legrand 5085,MONTEVIDEO,-34.8895753540395,-56.0987151839695
MONTEVIDEO,FARMASHOP 19,Almeria 4701/002,MONTEVIDEO,-34.8943833238918,-56.1077023650922
MONTEVIDEO,FARMASHOP 53,"Av. Italia 4280, Plaza Italia Shopping",MONTEVIDEO,-34.8876609249247,-56.1180002419651
MONTEVIDEO,FARMASHOP 59,Av. Italia 3949,MONTEVIDEO,-34.8864409455867,-56.1263649208102
MONTEVIDEO,FARMASHOP 58,Av. Italia 3813,MONTEVIDEO,-34.8865285338469,-56.129984192846
MONTEVIDEO,FARMASHOP 27,Av. Gral E. Garzon 1925,MONTEVIDEO,-34.8059973849354,-56.2223772947046
MONTEVIDEO,FARMASHOP 114,Lezica 6326,MONTEVIDEO,-34.7969132310961,-56.2471647723294
MONTEVIDEO,FARMASHOP 113,Lezica 6394,MONTEVIDEO,-34.7952897201311,-56.2489634598148
MONTEVIDEO,FARMASHOP 109,San Jose 1052,MONTEVIDEO,-34.9071227235166,-56.1933918368964
CANELONES,FARMASHOP 2,Ruta 8  Km. 30.500,PANDO,-34.7261872750942,-55.9643125628323
CANELONES,FARMASHOP 35,Av. Gral. Jose G. Artigas 1068,PANDO,-34.721000798832,-55.9602866310172
MALDONADO,FARMASHOP 4,Av. Francisco Piria Es. Bs.As.,PIRIAPOLIS,-34.8651695811516,-55.269387287779
MALDONADO,FARMASHOP 76,Av. Juan Gorlero 780,PUNTA DEL ESTE,-34.9620108451906,-54.9432704069098
MALDONADO,FARMASHOP 75,Av. Juan Gorlero 993,PUNTA DEL ESTE,-34.9589057631642,-54.939800504139
MALDONADO,FARMASHOP 7,Av. Roosevelt y P. 10,PUNTA DEL ESTE,-34.927777521134,-54.9472212630734
MALDONADO,FARMASHOP 121,"Av. Pedragosa Sierra Esq. Roosevelt, Torre Place Lafayette Local 8",PUNTA DEL ESTE,-34.9336428064125,-54.9407929104082
MALDONADO,IBIZA,SD,PUNTA DEL ESTE,-34.9300204062245,-54.9448563800491
MALDONADO,FARMASHOP 17,Av. Roosevelt esq Z. Michelini,PUNTA DEL ESTE,-34.9239486629042,-54.9511345814112
MALDONADO,FARMASHOP 88,Av. Camacho esq. Av. Roosevelt,PINARES- LAS DELICIAS,-34.9198359248669,-54.9615372513812
MALDONADO,FARMASHOP 120,Florida 784,MALDONADO,-34.9081991988743,-54.9583136905921
MALDONADO,FARMASHOP 122,"Av. Leandro Gomez, Jardines del Mar y Sol Local 03",PINARES- LAS DELICIAS,-34.9001238741029,-54.9925012654235
MALDONADO,FARMASHOP 71,Ruta 10 Av. Eduardo V Haedo entre Las Brisas y Los Romances. Loc 209,EL TESORO,-34.9086074227297,-54.8729456364204
CANELONES,FARMASHOP 93,Av. Dr. Enrique Pouey 607,LAS PIEDRAS,-34.7274472711055,-56.223577096884
CANELONES,FARMASHOP 30,Av. Rivera 609,LAS PIEDRAS,-34.7273534265411,-56.2158138052894
CANELONES,FARMASHOP 31,Av. Artigas 539,LAS PIEDRAS,-34.7269897788538,-56.2136272269376
MONTEVIDEO,FARMASHOP 36,Av. Gral San Martin 3402,MONTEVIDEO,-34.8627124801986,-56.1787569328998
CANELONES,FARMASHOP 49,Av. de las Américas 6000,BARRA DE CARRASCO,-34.8698083023285,-56.0311429521813
CANELONES,FARMASHOP 45,Av. Del Parque 77,BARRA DE CARRASCO,-34.8683496058798,-56.0210904397425
FLORES,FARMASHOP 46,Presidente Berro 530,TRINIDAD,-33.5186018513553,-56.8970785418312
MONTEVIDEO,FARMASHOP 48,Estanislao Lopez 4856 Local 002,MONTEVIDEO,-34.888367023586,-56.1035476573346
CANELONES,FARMASHOP 54,Av. Giannattasio Km. 22800,SOLYMAR,-34.8288483879388,-55.9699217309889
SAN JOSE,FARMASHOP 127,Wilson Ferreira Aldunate Esq. Jose Enrique Rodo,LIBERTAD,-34.6376708511522,-56.6205645849172
SAN JOSE,FARMASHOP 63,Gral. Jose G. Artigas 561,SAN JOSE DE MAYO,-34.3393784108887,-56.7146548052051
COLONIA,FARMASHOP 116,Av. Luis A. de Herrera  Esq. G. Tell,NUEVA HELVECIA,-34.2882603324584,-57.2329601631773
COLONIA,FARMASHOP 85,Gral: Flores 450,COLONIA DEL SACRAMENTO,-34.4706280832706,-57.8451299067512
COLONIA,FARMASHOP 125,Av. Jose Batlle y Ordoñez s/n esquina Ruta N 21,COLONIA DEL SACRAMENTO,-34.456519231474,-57.8322620108814
MALDONADO,FARMASHOP 65,Av. Cebeiro 581,SAN CARLOS,-34.7957150562032,-54.9220097763816
MALDONADO,FARMASHOP 67,18 de Julio 1011,SAN CARLOS,-34.7938063842789,-54.918302229045
CANELONES,FARMASHOP 118,Uruguay Esq. Rio Negro,EL PINAR,-34.801306060565,-55.9200048533529
CANELONES,FARMASHOP 74,Av. Giannattasio Km. 21800,LAGOMAR,-34.8347687818392,-55.9808921260911
CERRO LARGO,FARMASHOP 80,Oribe 898,MELO,-32.3768200171341,-54.1657154426839
CERRO LARGO,FARMASHOP 79,Aparicio Saravia 649,MELO,-32.3705462955045,-54.1688551760819
CERRO LARGO,FARMASHOP 81,Florencio Sanchez 898,MELO,-32.3691904362512,-54.1644601238414
PAYSANDU,FARMASHOP 82,18 de Julio 1405,PAYSANDU,-32.3177654524542,-58.0766742232635
PAYSANDU,FARMASHOP 83,18 de Julio 1119,PAYSANDU,-32.3169956001663,-58.0838470634233
ARTIGAS,FARMASHOP 84,Av. Cnel. Carlos Lecueder 250,ARTIGAS,-30.3995951722948,-56.4643967064596
RIO NEGRO,FARMASHOP 86,18 de Julio 1680,YOUNG,-32.7032117114524,-57.6321046812756
RIO NEGRO,FARMASHOP 87,18 de Julio 1953,YOUNG,-32.6989914112136,-57.6253485627037
SORIANO,FARMASHOP 92,Gral. Jose Artigas 289,MERCEDES,-33.2491221000974,-58.0293495367249
SORIANO,FARMASHOP 91,Jose Enrique Rodo 550,MERCEDES,-33.2511885919385,-58.0334243093693
DURAZNO,FARMASHOP 95,Brig. Gral. Manuel Oribe 751,DURAZNO,-33.380414535936,-56.5231163214216
SALTO,FARMASHOP 96,Uruguay 697,SALTO,-31.3872027300092,-57.9668201709948
RIVERA,FARMASHOP 97,Sarandi 509,RIVERA,-30.8993663533201,-55.5393738958924
COLONIA,FARMASHOP 100,19 de abril 508,CARMELO,-33.9955622185951,-58.2829592909354
DURAZNO,FARMASHOP 101,19 de Abril 946,DURAZNO,-33.3758158199612,-56.5248956723407
SALTO,FARMASHOP 102,18 de Julio 372,SALTO,-31.3923008584108,-57.9619892658929
COLONIA,FARMASHOP 103,Jose Pedro Varela 596,COLONIA DEL SACRAMENTO,-34.462926121602,-57.838361446829
LAVALLEJA,FARMASHOP 105,25 de Mayo 582,MINAS,-34.3765982550939,-55.2363271669643
ROCHA,FARMASHOP 106,Jose Pedro Ramirez 200,ROCHA,-34.4839107236735,-54.3334062006563
CANELONES,FARMASHOP 107,Treinta y Tres 368 esq. Tolentino Gonzalez,CANELONES,-34.5227923214909,-56.2814734130491
MALDONADO,FARMASHOP 110,Felix de Lizarza 678,PAN DE AZUCAR,-34.7768916748671,-55.2254979833426
MALDONADO,FARMASHOP 124,Ruta Interbalnearia Km.118 Estacion Ancap Solanas,PUNTA BALLENA,-34.8786080385324,-55.0528190371204
TACUAREMBO,FARMASHOP 126,Pablo Rios 149,TACUAREMBO,-31.7262720602891,-55.9717930782836
SAN JOSE,FARMASHOP 131,Av. Luis A. De Herrera 701,SAN JOSE DE MAYO,-34.3431326693277,-56.7080597643231
MONTEVIDEO,FARMASHOP 133,Av. 18 de Julio 1644,MONTEVIDEO,-34.9039143414412,-56.1806918929323
SORIANO,FARMASHOP 136,Jose Enrique Rodo 718,MERCEDES,-33.2505463328288,-58.029744482245
MONTEVIDEO,FARMASHOP 137,Av. Luis A. de Herrera 2888,MONTEVIDEO,-34.8765968593519,-56.157000736125
